     3.04           N: GNSS NAV DATA    M: MIXED            RINEX VERSION / TYPE
ssrcrin-15.6.1x                         20250101 063000 UTC PGM / RUN BY / DATE 
    18                                                      LEAP SECONDS        
                                                            END OF HEADER       
E08 2025 01 01 06 20 00-3.932476392947E-04-6.167510946398E-12 0.000000000000E+00
     8.900000000000E+01-1.503125000000E+02 2.722970565511E-09-2.518830609920E-01
    -6.917864084244E-06 1.749175135046E-04 1.143477857113E-05 5.440621007919E+03
     2.820000000000E+05 3.352761268616E-08 3.141825831028E-01-2.793967723846E-08
     9.694185627572E-01 9.634375000000E+01 6.421500194401E-01-5.205216818174E-09
     2.378670509746E-10 5.170000000000E+02 2.347000000000E+03
     3.120000000000E+00 0.000000000000E+00-5.820766091347E-09-5.820766091347E-09
     2.827530000000E+05
E08 2025 01 01 06 20 00-3.932478721254E-04-6.167510946398E-12 0.000000000000E+00
     8.900000000000E+01-1.503125000000E+02 2.722970565511E-09-2.518830609920E-01
    -6.917864084244E-06 1.749175135046E-04 1.143477857113E-05 5.440621007919E+03
     2.820000000000E+05 3.352761268616E-08 3.141825831028E-01-2.793967723846E-08
     9.694185627572E-01 9.634375000000E+01 6.421500194401E-01-5.205216818174E-09
     2.378670509746E-10 2.580000000000E+02 2.347000000000E+03
     3.120000000000E+00 0.000000000000E+00-5.820766091347E-09 0.000000000000E+00
     2.827900000000E+05
S36 2025 01 01 06 33 04 0.000000000000E+00 0.000000000000E+00 2.827900000000E+05
     4.200368800000E+04 0.000000000000E+00 0.000000000000E+00 6.300000000000E+01
     3.674846960000E+03 0.000000000000E+00 0.000000000000E+00 3.276700000000E+04
     0.000000000000E+00 0.000000000000E+00 0.000000000000E+00 5.100000000000E+01
S23 2025 01 01 06 33 52 0.000000000000E+00 0.000000000000E+00 2.828370000000E+05
     3.866796400000E+04 0.000000000000E+00 0.000000000000E+00 6.300000000000E+01
     1.681330800000E+04 0.000000000000E+00 0.000000000000E+00 3.276700000000E+04
     0.000000000000E+00 0.000000000000E+00 0.000000000000E+00 1.740000000000E+02
C42 2025 01 01 06 00 00-5.543673178181E-04-1.057021137285E-11 0.000000000000E+00
     1.000000000000E+00-1.626093750000E+02 3.244778015171E-09 1.587943157418E+00
    -8.083879947662E-06 1.356566324830E-03 6.242189556360E-06 5.282641298294E+03
     2.808000000000E+05-1.033768057823E-07-3.042048600620E-01 5.774199962616E-08
     9.793991326365E-01 2.413125000000E+02-1.124023496296E+00-6.550272845156E-09
    -3.232277494475E-10 0.000000000000E+00 9.910000000000E+02 0.000000000000E+00
     2.000000000000E+00 0.000000000000E+00-3.190000000000E-08-3.190000000000E-08
     2.828880000000E+05 1.000000000000E+00
S36 2025 01 01 06 35 28 0.000000000000E+00 0.000000000000E+00 2.829420000000E+05
     4.200368800000E+04 0.000000000000E+00 0.000000000000E+00 6.300000000000E+01
     3.674846960000E+03 0.000000000000E+00 0.000000000000E+00 3.276700000000E+04
     0.000000000000E+00 0.000000000000E+00 0.000000000000E+00 5.200000000000E+01
S23 2025 01 01 06 36 00 0.000000000000E+00 0.000000000000E+00 2.829640000000E+05
     3.866796400000E+04 0.000000000000E+00 0.000000000000E+00 6.300000000000E+01
     1.681330800000E+04 0.000000000000E+00 0.000000000000E+00 3.276700000000E+04
     0.000000000000E+00 0.000000000000E+00 0.000000000000E+00 1.750000000000E+02
S23 2025 01 01 06 37 52 0.000000000000E+00 0.000000000000E+00 2.830870000000E+05
     3.866796400000E+04 0.000000000000E+00 0.000000000000E+00 6.300000000000E+01
     1.681330800000E+04 0.000000000000E+00 0.000000000000E+00 3.276700000000E+04
     0.000000000000E+00 0.000000000000E+00 0.000000000000E+00 1.760000000000E+02
S36 2025 01 01 06 38 08 0.000000000000E+00 0.000000000000E+00 2.830940000000E+05
     4.200368800000E+04 0.000000000000E+00 0.000000000000E+00 6.300000000000E+01
     3.674846960000E+03 0.000000000000E+00 0.000000000000E+00 3.276700000000E+04
     0.000000000000E+00 0.000000000000E+00 0.000000000000E+00 5.300000000000E+01
S23 2025 01 01 06 40 00 0.000000000000E+00 0.000000000000E+00 2.832140000000E+05
     3.866796400000E+04 0.000000000000E+00 0.000000000000E+00 6.300000000000E+01
     1.681330800000E+04 0.000000000000E+00 0.000000000000E+00 3.276700000000E+04
     0.000000000000E+00 0.000000000000E+00 0.000000000000E+00 1.770000000000E+02
S36 2025 01 01 06 40 48 0.000000000000E+00 0.000000000000E+00 2.832540000000E+05
     4.200368800000E+04 0.000000000000E+00 0.000000000000E+00 6.300000000000E+01
     3.674846960000E+03 0.000000000000E+00 0.000000000000E+00 3.276700000000E+04
     0.000000000000E+00 0.000000000000E+00 0.000000000000E+00 5.400000000000E+01
E05 2025 01 01 06 30 00 4.815223917831E-03 3.296918293927E-12 0.000000000000E+00
     9.000000000000E+01-1.749375000000E+02 2.658682173356E-09-1.443833247919E+00
    -8.095055818558E-06 2.351112198085E-05 1.191906630993E-05 5.440621202469E+03
     2.826000000000E+05-2.421438694000E-08 3.133369476959E-01 3.539025783539E-08
     9.635943055249E-01 8.543750000000E+01-2.819500885815E+00-5.173429779830E-09
     2.978695503195E-10 5.170000000000E+02 2.347000000000E+03
     3.120000000000E+00 0.000000000000E+00-1.164153218269E-09 0.000000000000E+00
     2.832650000000E+05
E03 2025 01 01 06 30 00-1.636860542931E-04-2.529532139306E-12 0.000000000000E+00
     9.000000000000E+01-1.568750000000E+02 2.816188734136E-09 3.050898333362E-01
    -7.212162017822E-06 2.406350104138E-04 1.148879528046E-05 5.440616914749E+03
     2.826000000000E+05 2.980232238770E-08 3.133310170260E-01 6.332993507385E-08
     9.635800801095E-01 9.500000000000E+01 9.344404372521E-01-5.234503752378E-09
     2.942979729776E-10 5.170000000000E+02 2.347000000000E+03
     3.120000000000E+00 0.000000000000E+00 6.984919309616E-10 1.629814505577E-09
     2.832650000000E+05
E24 2025 01 01 06 30 00-1.187310263049E-03-2.135891463695E-11 0.000000000000E+00
     9.000000000000E+01-1.421875000000E+01 3.269421898831E-09-1.987069514107E-01
    -5.569308996201E-07 7.853893330321E-04 6.867572665215E-06 5.440610687256E+03
     2.826000000000E+05-5.960464477539E-08 2.416412133585E+00 3.166496753693E-08
     9.620721699847E-01 1.939375000000E+02 9.081553030565E-01-5.398081994640E-09
    -6.135969873489E-10 5.170000000000E+02 2.347000000000E+03
     3.120000000000E+00 0.000000000000E+00-6.286427378654E-09-6.519258022308E-09
     2.832650000000E+05
E15 2025 01 01 06 30 00-1.484135864303E-04-2.273736754432E-12 0.000000000000E+00
     9.000000000000E+01 1.631562500000E+02 2.747614449170E-09-2.554199732465E+00
     7.746741175652E-06 4.392574774101E-04 9.443610906601E-07 5.440605125427E+03
     2.826000000000E+05-5.215406417847E-08-1.775815904306E+00 2.048909664154E-08
     9.996271540034E-01 3.381875000000E+02-1.175716702874E+00-5.641663569361E-09
     3.668009930194E-10 5.170000000000E+02 2.347000000000E+03
     3.120000000000E+00 0.000000000000E+00 2.561137080193E-09 3.725290298462E-09
     2.832650000000E+05
E08 2025 01 01 06 30 00-3.932513063774E-04-6.167510946398E-12 0.000000000000E+00
     9.000000000000E+01-1.525937500000E+02 2.736542559410E-09-1.766310114249E-01
    -7.005408406258E-06 1.746101770550E-04 1.136958599091E-05 5.440620330811E+03
     2.826000000000E+05 3.911554813385E-08 3.141794495323E-01-2.793967723846E-08
     9.694186827164E-01 9.800000000000E+01 6.412824826866E-01-5.207359764579E-09
     2.410814705824E-10 5.170000000000E+02 2.347000000000E+03
     3.120000000000E+00 0.000000000000E+00-5.820766091347E-09-5.820766091347E-09
     2.832650000000E+05
E13 2025 01 01 06 30 00-2.859608503059E-05-3.552713678801E-13 0.000000000000E+00
     9.000000000000E+01 1.505312500000E+02 2.632609658759E-09 2.862858876718E+00
     7.087364792824E-06 3.830883651972E-04 1.192092895508E-07 5.440612789154E+03
     2.826000000000E+05-4.284083843231E-08-1.775740906348E+00 6.146728992462E-08
     9.996706992229E-01 3.530625000000E+02-1.108276281824E+00-5.657735667400E-09
     3.671581507536E-10 5.170000000000E+02 2.347000000000E+03
     3.120000000000E+00 0.000000000000E+00 2.095475792885E-09 3.026798367500E-09
     2.832840000000E+05
E05 2025 01 01 06 30 00 4.815222579055E-03 3.282707439212E-12 0.000000000000E+00
     9.000000000000E+01-1.749375000000E+02 2.658682173356E-09-1.443833247919E+00
    -8.095055818558E-06 2.351112198085E-05 1.191906630993E-05 5.440621202469E+03
     2.826000000000E+05-2.421438694000E-08 3.133369476959E-01 3.539025783539E-08
     9.635943055249E-01 8.543750000000E+01-2.819500885815E+00-5.173429779830E-09
     2.978695503195E-10 2.580000000000E+02 2.347000000000E+03
     3.120000000000E+00 0.000000000000E+00-1.164153218269E-09 0.000000000000E+00
     2.833400000000E+05
E03 2025 01 01 06 30 00-1.636872184463E-04-2.529532139306E-12 0.000000000000E+00
     9.000000000000E+01-1.568750000000E+02 2.816188734136E-09 3.050898333362E-01
    -7.212162017822E-06 2.406350104138E-04 1.148879528046E-05 5.440616914749E+03
     2.826000000000E+05 2.980232238770E-08 3.133310170260E-01 6.332993507385E-08
     9.635800801095E-01 9.500000000000E+01 9.344404372521E-01-5.234503752378E-09
     2.942979729776E-10 2.580000000000E+02 2.347000000000E+03
     3.120000000000E+00 0.000000000000E+00 6.984919309616E-10 0.000000000000E+00
     2.833400000000E+05
E24 2025 01 01 06 30 00-1.187310321257E-03-2.134470378223E-11 0.000000000000E+00
     9.000000000000E+01-1.421875000000E+01 3.269421898831E-09-1.987069514107E-01
    -5.569308996201E-07 7.853893330321E-04 6.867572665215E-06 5.440610687256E+03
     2.826000000000E+05-5.960464477539E-08 2.416412133585E+00 3.166496753693E-08
     9.620721699847E-01 1.939375000000E+02 9.081553030565E-01-5.398081994640E-09
    -6.135969873489E-10 2.580000000000E+02 2.347000000000E+03
     3.120000000000E+00 0.000000000000E+00-6.286427378654E-09 0.000000000000E+00
     2.833400000000E+05
